[{"OBJECT_NAME":"GEESAT-2 08","OBJECT_ID":"2024-023H","EPOCH":"2026-03-09T22:09:20.034720","MEAN_MOTION":14.82872022,"ECCENTRICITY":0.00045,"INCLINATION":49.9882,"RA_OF_ASC_NODE":92.913,"ARG_OF_PERICENTER":319.9295,"MEAN_ANOMALY":40.131,"EPHEMERIS_TYPE":0,"CLASSIFICATION_TYPE":"U","NORAD_CAT_ID":58912,"ELEMENT_SET_NO":999,"REV_AT_EPOCH":11418,"BSTAR":0.0003777251,"MEAN_MOTION_DOT":2.869e-5,"MEAN_MOTION_DDOT":0},{"OBJECT_NAME":"SL-14 R\/B","OBJECT_ID":"1986-055B","EPOCH":"2026-03-09T16:18:40.903776","MEAN_MOTION":14.85642641,"ECCENTRICITY":0.00181921,"INCLINATION":82.5202,"RA_OF_ASC_NODE":126.6837,"ARG_OF_PERICENTER":336.5476,"MEAN_ANOMALY":145.9532,"EPHEMERIS_TYPE":0,"CLASSIFICATION_TYPE":"U","NORAD_CAT_ID":16882,"ELEMENT_SET_NO":999,"REV_AT_EPOCH":11936,"BSTAR":5.7455179e-5,"MEAN_MOTION_DOT":5.23e-6,"MEAN_MOTION_DDOT":0}]
